id,key,court_name_short,court_name_full,address_line_1,address_line_2,address_line_3,city,postcode,latitude,longitude,region,type,other_names
401,aylesbury_crown_court,Aylesbury,Aylesbury Crown Court,,,,Aylesbury,HP21 7FT,51.813681,-0.808913,South East,crown,
461,basildon_combined_court,Basildon,Basildon Combined Court,,,,Basildon,SS14 2EW,51.57257049,0.4547927639,East of England,crown,
404,birmingham_crown_court,Birmingham,Birmingham Crown Court,,,,Birmingham,B4 7NA,52.48309166,-1.894156363,West Midlands,crown,
428,blackfriars_crown_court,Blackfriars,Blackfriars Crown Court,,,,London,SE1 0BT,51.50255636,-0.1006471777,London,crown,
470,bolton_crown_court,Bolton,Bolton Crown Court,,,,Bolton,BL1 1SU,53.57820699,-2.43368919,North West,crown,
406,bournemouth_crown_court,Bournemouth,Bournemouth Crown Court,,,,Bournemouth,BH7 7DS,50.74794572,-1.81626577,South West,crown,
402,bradford_combined_court_centre,Bradford,Bradford Combined Court Centre,,,,Bradford,BD1 1JA,53.79257695,-1.749359271,Yorkshire and The Humber,crown,
408,bristol_crown_court,Bristol,Bristol Crown Court,,,,Bristol,BS1 1DA,51.45479644,-2.595002338,South West,crown,
154,burnley_combined_court_centre,Burnley,Burnley Combined Court Centre,,,,Burnley,BB11 1XD,53.78773038,-2.247153585,North West,crown,
755,caernarfon_crown_court,Caernarfon,Caernarfon Crown Court,,,,Caernarfon,LL55 2DF,53.14072879,-4.264067316,Wales,crown,
410,cambridge_crown_court,Cambridge,Cambridge Crown Court,,,,Cambridge,CB1 1BT,52.20680967,0.1368094365,East of England,crown,
163,canterbury_combined_court_centre,Canterbury,Canterbury Combined Court Centre,,,,Canterbury,CT1 1ZA,51.281894,1.094980004,South East,crown,
411,cardiff_crown_court,Cardiff,Cardiff Crown Court,,,,Cardiff,CF10 3PG,51.48455247,-3.180271121,Wales,crown,
412,carlisle_combined_court,Carlisle,Carlisle Combined Court,,,,Carlisle,CA1 1DJ,54.89343568,-2.931525742,North West,crown,
413,central_criminal_court,Central Criminal Court,Central Criminal Court,,,,London,EC4M 7EH,51.51549153,-0.1019972162,London,crown,
414,chelmsford_crown_court,Chelmsford,Chelmsford Crown Court,,,,Chelmsford,CM1 1EL,51.74249144,0.5006018832,East of England,crown,
415,chester_crown_court,Chester,Chester Crown Court,,,,Chester,CH1 2AN,53.18589235,-2.891793951,North West,crown,
172,chichester_combined_court_centre,Chichester,Chichester Combined Court Centre,,,,Chichester,PO19 1SX,50.837835,-0.77924,South East,crown,
180,coventry_combined_court_centre,Coventry,Coventry Combined Court Centre,,,,Coventry,CV1 2SN,52.40558609,-1.506439767,West Midlands,crown,
418,croydon_crown_court,Croydon,Croydon Crown Court,,,,Croydon,CR9 5AB,51.37333767,-0.09214917123,London,crown,
419,derby_combined_court_centre,Derby,Derby Combined Court Centre,,,,Derby,DE1 2XE,52.92243516,-1.47306907,East Midlands,crown,
2771,doncaster_justice_centre_north,Doncaster (North),Doncaster Justice Centre (North),,,,Doncaster,DN1 3HS,53.51899218,-1.129562761,Yorkshire and The Humber,crown,
420,doncaster_justice_centre_south,Doncaster (South),Doncaster Justice Centre (South),,,,Doncaster,DN1 3HS,53.51899218,-1.129562761,Yorkshire and The Humber,crown,
422,durham_crown_court,Durham,Durham Crown Court,,,,Durham,DH1 3HW,54.77408559,-1.567909432,North East,crown,
423,exeter_combined_court_centre,Exeter,Exeter Combined Court Centre,,,,Exeter,EX1 1UH,50.72127877,-3.525230128,South West,crown,
424,gloucester_crown_court,Gloucester,Gloucester Crown Court,,,,Gloucester,GL1 2TS,51.8659967,-2.249266134,South West,crown,
425,grimsby_combined_court_centre,Grimsby,Grimsby Combined Court Centre,,,,Grimsby,DN31 1HX,53.56485196,-0.0822233325,Yorkshire and The Humber,crown,
474,guildford_crown_court,Guildford,Guildford Crown Court,,,,Guildford,GU1 4ST,51.23875903,-0.5789517488,South East,crown,
468,harrow_crown_court,Harrow,Harrow Crown Court,,,,Harrow,HA1 4TU,51.59381558,-0.3398240861,London,crown,
1943,hull_and_holderness_magistrates_court_and_hearing_centre,Hull,Hull and Holderness Magistrates' Court and Hearing Centre,,,,Hull,HU1 1RD,53.74106329,-0.3331551658,Yorkshire and The Humber,crown,
440,inner_london_crown_court,Inner London,Inner London Crown Court,,,,London,SE1 6AZ,51.49818225,-0.09653563552,London,crown,
426,ipswich_crown_court,Ipswich,Ipswich Crown Court,,,,Ipswich,IP1 2AG,52.05353391,1.143596631,East of England,crown,
475,isleworth_crown_court,Isleworth,Isleworth Crown Court,,,,Isleworth,TW7 5LP,51.47921643,-0.3403306106,London,crown,
427,kingston_upon_thames_crown_court,Kingston Upon Thames,Kingston Upon Thames Crown Court,,,,Kingston upon Thames,KT1 2BB,51.40589496,-0.3046980037,London,crown,
243,leeds_combined_court_centre,Leeds,Leeds Combined Court Centre,,,,Leeds,LS1 3BG,53.80037814,-1.551755129,Yorkshire and The Humber,crown,
430,leicester_crown_court,Leicester,Leicester Crown Court,,,,Leicester,LE1 6HG,52.62991249,-1.127374196,East Midlands,crown,
431,lewes_combined_court_centre,Lewes,Lewes Combined Court Centre,,,,Lewes,BN7 1YB,50.87308586,0.009744789002,South East,crown,
432,lincoln_crown_court,Lincoln,Lincoln Crown Court,,,,Lincoln,LN1 3GA,53.23522413,-0.5417386653,East Midlands,crown,
433,liverpool_crown_court,Liverpool,Liverpool Crown Court,,,,Liverpool,L2 1XA,53.40406677,-2.989685563,North West,crown,
769,luton_crown_court,Luton,Luton Crown Court,,,,George St,LU1 2AA,51.878027,-0.4142778767,East of England,crown,
434,maidstone_combined_court_centre,Maidstone,Maidstone Combined Court Centre,,,,Maidstone,ME16 8EQ,51.2709856,0.5186837617,South East,crown,
435,manchester_crown_court_crown_square,Manchester (Crown Square),Manchester Crown Court (Crown Square),,,,Manchester,M3 3FL,53.48011573,-2.25220132,North West,crown,
436,manchester_crown_court_minshull_street,Manchester (Minshull Street),Manchester Crown Court (Minshull Street),,,,Manchester,M1 3FS,53.47867636,-2.235166387,North West,crown,
3270,merthyr_tydfil_combined_court_centre,Merthyr Tydfil,Merthyr Tydfil Combined Court Centre,,,,Merthyr Tydfil,CF47 8BH,51.74777327,-3.381026171,Wales,crown,
464,supreme_court_of_the_united_kingdom,Middlesex Guildhall,Supreme Court of the United Kingdom,,,,London,SW1P 3BD,51.500335,-0.128043,London,crown,
769,mold_crown_court,Mold,Mold Crown Court,,,,Mold,CH7 1AE,53.17699771,-3.137170822,Wales,crown,
278,newcastle_crown_court,Newcastle,Newcastle Crown Court,,,,Newcastle upon Tyne,NE1 3LA,54.96972524,-1.603677507,North East,crown,
478,newport_iow_combined_court,Newport (IOW),Newport (IOW) Combined Court,,,,Newport,PO30 5YT,50.701368,-1.291445,South East,crown,
441,newport_south_wales_crown_court,Newport (South Wales),Newport (South Wales) Crown Court,,,,Newport,NP20 4PR,51.588386,-3.004937592,Wales,crown,
282,northampton_crown_court,Northampton,Northampton Crown Court,,,,Northampton,NN1 3HQ,52.24080447,-0.8936399684,East Midlands,crown,
443,norwich_combined_court_centre,Norwich,Norwich Combined Court Centre,,,,Norwich,NR3 1UR,52.63414636,1.301035962,East of England,crown,
444,nottingham_crown_court,Nottingham,Nottingham Crown Court,,,,Nottingham,NG1 7EL,52.94854182,-1.146650628,East Midlands,crown,
291,oxford_combined_court_centre,Oxford,Oxford Combined Court Centre,,,,Oxford,OX1 1TL,51.74817249,-1.257072216,South East,crown,
294,peterborough_combined_court_centre,Peterborough,Peterborough Combined Court Centre,,,,Peterborough,PE1 1EJ,52.56989098,-0.2399167601,East of England,crown,
296,plymouth_combined_court,Plymouth,Plymouth Combined Court,,,,Plymouth,PL1 2ER,50.36920079,-4.141694799,South West,crown,
302,portsmouth_combined_court_centre,Portsmouth,Portsmouth Combined Court Centre,,,,Portsmouth,PO1 2EB,50.79575459,-1.091162922,South East,crown,
448,preston_combined_court_centre,Preston,Preston Combined Court Centre,,,,Preston,PR1 2PD,53.75956098,-2.698526682,North West,crown,
449,reading_crown_court,Reading,Reading Crown Court,,,,Reading,RG1 3EH,51.4561392,-0.9674033753,South East,crown,
480,salisbury_law_courts,Salisbury,Salisbury Law Courts,,,,Salisbury,SP2 7EP,51.07337973,-1.810385948,South West,crown,
320,sheffield_combined_court_centre,Sheffield,Sheffield Combined Court Centre,,,,Sheffield,S3 8PH,53.38555809,-1.468739129,Yorkshire and The Humber,crown,
452,shrewsbury_crown_court,Shrewsbury,Shrewsbury Crown Court,,,,Shrewsbury,SY2 6LU,52.70462198,-2.731136372,West Midlands,crown,
453,snaresbrook_crown_court,Snaresbrook,Snaresbrook Crown Court,,,,London,E11 1QW,51.58101717,0.01728371936,London,crown,
454,southampton_combined_court_centre,Southampton,Southampton Combined Court Centre,,,,Southampton,SO15 2XQ,50.91370795,-1.402977005,South East,crown,
471,southwark_crown_court,Southwark,Southwark Crown Court,,,,London,SE1 2HU,51.5057178,-0.08217210033,London,crown,
450,st_albans_crown_court,St Albans,St Albans Crown Court,,,,St Albans,AL1 3JW,51.75184796,-0.3351513989,East of England,crown,
455,stafford_combined_court_centre,Stafford,Stafford Combined Court Centre,,,,Stafford,ST16 2QQ,52.80543167,-2.119429454,West Midlands,crown,
338,stoke_on_trent_combined_court,Stoke-on-Trent,Stoke-on-Trent Combined Court,,,,Stoke-on-Trent,ST1 3BP,53.02203985,-2.17575418,West Midlands,crown,
457,swansea_crown_court,Swansea,Swansea Crown Court,,,,Swansea,SA1 4PF,51.61444461,-3.957541869,Wales,crown,
345,swindon_combined_court,Swindon,Swindon Combined Court,,,,Swindon,SN1 2HG,51.5611061,-1.781911084,South West,crown,
459,taunton_crown_court,Taunton,Taunton Crown Court,,,,Taunton,TA1 4EU,51.0127735,-3.107709617,South West,crown,
460,teesside_combined_court_centre,Teesside,Teesside Combined Court Centre,,,,Middlesbrough,TS1 2AE,54.57521086,-1.231232266,North East,crown,
477,truro_crown_court,Truro,Truro Crown Court,,,,Truro,TR1 2PB,50.2656343,-5.056409762,South West,crown,
361,warwick_combined_court,Warwick,Warwick Combined Court,,,,Leamington Spa,CV32 4EL,52.28839117,-1.53345724,West Midlands,crown,
1530,weymouth_combined_court,Weymouth and Dorcester,Weymouth Combined Court,,,,Weymouth,DT4 8BS,50.60840563,-2.460105384,South West,crown,
376,winchester_combined_court_centre,Winchester,Winchester Combined Court Centre,,,,Winchester,SO23 9EL,51.06245,-1.318984958,South East,crown,
378,wolverhampton_combined_court_centre,Wolverhampton,Wolverhampton Combined Court Centre,,,,Wolverhampton,WV1 3LQ,52.58436482,-2.122132394,West Midlands,crown,
469,wood_green_crown_court,Wood Green,Wood Green Crown Court,,,,London,N22 5LF,51.59882174,-0.1051380171,London,crown,
472,woolwich_crown_court,Woolwich,Woolwich Crown Court,,,,London,SE28 0EY,51.49649605,0.09013780356,London,crown,
380,worcester_combined_court_centre,Worcester,Worcester Combined Court Centre,,,,Worcester,WR1 1EQ,52.19695284,-2.221883619,West Midlands,crown,
467,york_crown_court,York,York Crown Court,,,,York,YO1 9WZ,53.95527456,-1.079646999,Yorkshire and The Humber,crown,